{
  "type": "FeatureCollection",
  "features": [
    {
      "type": "Feature",
      "properties": {
        "norad_id": 39773,
        "name": "EUTELSAT 3B",
        "group": "eutelsat",
        "lat": -0.07535452216766474,
        "lon": -121.13871631513105,
        "alt_km": 35766.52069974691,
        "timestamp": "2025-12-03T10:52:57.121474+00:00",
        "meta_object_name": "EUTELSAT 3B",
        "meta_object_id": "2014-030A",
        "meta_epoch": "2025-12-03T01:47:06.775872",
        "meta_mean_motion": 1.00270722,
        "meta_eccentricity": 0.0004776,
        "meta_inclination": 0.0628,
        "meta_ra_of_asc_node": 1.098,
        "meta_arg_of_pericenter": 226.5291,
        "meta_mean_anomaly": 234.4171,
        "meta_ephemeris_type": 0,
        "meta_classification_type": "U",
        "meta_norad_cat_id": 39773,
        "meta_element_set_no": 999,
        "meta_rev_at_epoch": 4210,
        "meta_bstar": 0,
        "meta_mean_motion_dot": 3.9e-07,
        "meta_mean_motion_ddot": 0,
        "tle_line1": "1 39773U 14030A   25337.07438398  .00000039  00000+0  00000+0 0  9999",
        "tle_line2": "2 39773   0.0628   1.0980 0004776 226.5291 234.4171  1.00270722 42106"
      },
      "geometry": {
        "type": "Point",
        "coordinates": [
          -121.13871631513105,
          -0.07535452216766474
        ]
      }
    },
    {
      "type": "Feature",
      "properties": {
        "norad_id": 40425,
        "name": "EUTELSAT 115 WEST B",
        "group": "eutelsat",
        "lat": -0.0033803158597337747,
        "lon": 120.8635125680043,
        "alt_km": 35785.16408251364,
        "timestamp": "2025-12-03T10:52:57.121498+00:00",
        "meta_object_name": "EUTELSAT 115 WEST B",
        "meta_object_id": "2015-010B",
        "meta_epoch": "2025-12-02T23:30:40.501152",
        "meta_mean_motion": 1.00271793,
        "meta_eccentricity": 3.39e-05,
        "meta_inclination": 0.0139,
        "meta_ra_of_asc_node": 143.9078,
        "meta_arg_of_pericenter": 285.8537,
        "meta_mean_anomaly": 240.0881,
        "meta_ephemeris_type": 0,
        "meta_classification_type": "U",
        "meta_norad_cat_id": 40425,
        "meta_element_set_no": 999,
        "meta_rev_at_epoch": 3942,
        "meta_bstar": 0,
        "meta_mean_motion_dot": -6e-08,
        "meta_mean_motion_ddot": 0,
        "tle_line1": "1 40425U 15010B   25336.97963543 -.00000006  00000+0  00000+0 0  9992",
        "tle_line2": "2 40425   0.0139 143.9078 0000339 285.8537 240.0881  1.00271793 39426"
      },
      "geometry": {
        "type": "Point",
        "coordinates": [
          120.8635125680043,
          -0.0033803158597337747
        ]
      }
    },
    {
      "type": "Feature",
      "properties": {
        "norad_id": 40875,
        "name": "EUTELSAT 8 WEST B",
        "group": "eutelsat",
        "lat": -0.08143623518978418,
        "lon": -132.25992339055105,
        "alt_km": 35770.48676905617,
        "timestamp": "2025-12-03T10:52:57.121521+00:00",
        "meta_object_name": "EUTELSAT 8 WEST B",
        "meta_object_id": "2015-039B",
        "meta_epoch": "2025-12-03T01:43:59.574720",
        "meta_mean_motion": 1.00271563,
        "meta_eccentricity": 0.0004142,
        "meta_inclination": 0.0657,
        "meta_ra_of_asc_node": 346.5018,
        "meta_arg_of_pericenter": 268.1207,
        "meta_mean_anomaly": 195.5495,
        "meta_ephemeris_type": 0,
        "meta_classification_type": "U",
        "meta_norad_cat_id": 40875,
        "meta_element_set_no": 999,
        "meta_rev_at_epoch": 3769,
        "meta_bstar": 0,
        "meta_mean_motion_dot": -4.6e-07,
        "meta_mean_motion_ddot": 0,
        "tle_line1": "1 40875U 15039B   25337.07221730 -.00000046  00000+0  00000+0 0  9993",
        "tle_line2": "2 40875   0.0657 346.5018 0004142 268.1207 195.5495  1.00271563 37696"
      },
      "geometry": {
        "type": "Point",
        "coordinates": [
          -132.25992339055105,
          -0.08143623518978418
        ]
      }
    },
    {
      "type": "Feature",
      "properties": {
        "norad_id": 41310,
        "name": "EUTELSAT 9B",
        "group": "eutelsat",
        "lat": -0.01721200817149675,
        "lon": -115.27765322042251,
        "alt_km": 35766.704647638835,
        "timestamp": "2025-12-03T10:52:57.121536+00:00",
        "meta_object_name": "EUTELSAT 9B",
        "meta_object_id": "2016-005A",
        "meta_epoch": "2025-12-03T01:48:44.121024",
        "meta_mean_motion": 1.00271188,
        "meta_eccentricity": 0.0004894,
        "meta_inclination": 0.0647,
        "meta_ra_of_asc_node": 74.9993,
        "meta_arg_of_pericenter": 189.5296,
        "meta_mean_anomaly": 203.8118,
        "meta_ephemeris_type": 0,
        "meta_classification_type": "U",
        "meta_norad_cat_id": 41310,
        "meta_element_set_no": 999,
        "meta_rev_at_epoch": 3615,
        "meta_bstar": 0,
        "meta_mean_motion_dot": 8.1e-07,
        "meta_mean_motion_ddot": 0,
        "tle_line1": "1 41310U 16005A   25337.07551066  .00000081  00000+0  00000+0 0  9998",
        "tle_line2": "2 41310   0.0647  74.9993 0004894 189.5296 203.8118  1.00271188 36150"
      },
      "geometry": {
        "type": "Point",
        "coordinates": [
          -115.27765322042251,
          -0.01721200817149675
        ]
      }
    },
    {
      "type": "Feature",
      "properties": {
        "norad_id": 41382,
        "name": "EUTELSAT 65 WEST A",
        "group": "eutelsat",
        "lat": -0.017430518251369275,
        "lon": 170.52344985641093,
        "alt_km": 35786.0584995035,
        "timestamp": "2025-12-03T10:52:57.121549+00:00",
        "meta_object_name": "EUTELSAT 65 WEST A",
        "meta_object_id": "2016-014A",
        "meta_epoch": "2025-12-03T03:10:21.299808",
        "meta_mean_motion": 1.00270775,
        "meta_eccentricity": 0.0002771,
        "meta_inclination": 0.0502,
        "meta_ra_of_asc_node": 343.8414,
        "meta_arg_of_pericenter": 275.1096,
        "meta_mean_anomaly": 155.6653,
        "meta_ephemeris_type": 0,
        "meta_classification_type": "U",
        "meta_norad_cat_id": 41382,
        "meta_element_set_no": 999,
        "meta_rev_at_epoch": 3556,
        "meta_bstar": 0,
        "meta_mean_motion_dot": -2.57e-06,
        "meta_mean_motion_ddot": 0,
        "tle_line1": "1 41382U 16014A   25337.13219097 -.00000257  00000+0  00000+0 0  9995",
        "tle_line2": "2 41382   0.0502 343.8414 0002771 275.1096 155.6653  1.00270775 35560"
      },
      "geometry": {
        "type": "Point",
        "coordinates": [
          170.52344985641093,
          -0.017430518251369275
        ]
      }
    },
    {
      "type": "Feature",
      "properties": {
        "norad_id": 41589,
        "name": "EUTELSAT 117 WEST B",
        "group": "eutelsat",
        "lat": -0.007556640927538261,
        "lon": 118.75049734821853,
        "alt_km": 35786.65222229121,
        "timestamp": "2025-12-03T10:52:57.121566+00:00",
        "meta_object_name": "EUTELSAT 117 WEST B",
        "meta_object_id": "2016-038B",
        "meta_epoch": "2025-12-02T23:30:03.059712",
        "meta_mean_motion": 1.00267861,
        "meta_eccentricity": 1.93e-05,
        "meta_inclination": 0.0046,
        "meta_ra_of_asc_node": 146.1916,
        "meta_arg_of_pericenter": 23.0604,
        "meta_mean_anomaly": 138.3396,
        "meta_ephemeris_type": 0,
        "meta_classification_type": "U",
        "meta_norad_cat_id": 41589,
        "meta_element_set_no": 999,
        "meta_rev_at_epoch": 3469,
        "meta_bstar": 0,
        "meta_mean_motion_dot": 8e-08,
        "meta_mean_motion_ddot": 0,
        "tle_line1": "1 41589U 16038B   25336.97920208  .00000008  00000+0  00000+0 0  9997",
        "tle_line2": "2 41589   0.0046 146.1916 0000193  23.0604 138.3396  1.00267861 34691"
      },
      "geometry": {
        "type": "Point",
        "coordinates": [
          118.75049734821853,
          -0.007556640927538261
        ]
      }
    },
    {
      "type": "Feature",
      "properties": {
        "norad_id": 42741,
        "name": "EUTELSAT 172B",
        "group": "eutelsat",
        "lat": -0.009869339065191383,
        "lon": 47.75259796909256,
        "alt_km": 35787.092347936785,
        "timestamp": "2025-12-03T10:52:57.121578+00:00",
        "meta_object_name": "EUTELSAT 172B",
        "meta_object_id": "2017-029B",
        "meta_epoch": "2025-12-03T02:35:17.160864",
        "meta_mean_motion": 1.00270941,
        "meta_eccentricity": 1.88e-05,
        "meta_inclination": 0.0103,
        "meta_ra_of_asc_node": 174.5773,
        "meta_arg_of_pericenter": 43.9673,
        "meta_mean_anomaly": 64.4777,
        "meta_ephemeris_type": 0,
        "meta_classification_type": "U",
        "meta_norad_cat_id": 42741,
        "meta_element_set_no": 999,
        "meta_rev_at_epoch": 3176,
        "meta_bstar": 0,
        "meta_mean_motion_dot": 1.4e-07,
        "meta_mean_motion_ddot": 0,
        "tle_line1": "1 42741U 17029B   25337.10783751  .00000014  00000+0  00000+0 0  9992",
        "tle_line2": "2 42741   0.0103 174.5773 0000188  43.9673  64.4777  1.00270941 31763"
      },
      "geometry": {
        "type": "Point",
        "coordinates": [
          47.75259796909256,
          -0.009869339065191383
        ]
      }
    }
  ]
}